[{"OBJECT_NAME":"STARLINK-2673","OBJECT_ID":"2021-044M","EPOCH":"2026-03-09T12:06:57.695616","MEAN_MOTION":15.30166289,"ECCENTRICITY":0.00012955,"INCLINATION":53.1601,"RA_OF_ASC_NODE":114.7025,"ARG_OF_PERICENTER":87.225,"MEAN_ANOMALY":272.8899,"EPHEMERIS_TYPE":0,"CLASSIFICATION_TYPE":"U","NORAD_CAT_ID":48649,"ELEMENT_SET_NO":999,"REV_AT_EPOCH":26379,"BSTAR":0.00033198626,"MEAN_MOTION_DOT":9.476e-5,"MEAN_MOTION_DDOT":0},{"OBJECT_NAME":"ASRTU-1 (AO-123)","OBJECT_ID":"2024-199AY","EPOCH":"2026-03-09T22:36:42.151392","MEAN_MOTION":15.34070057,"ECCENTRICITY":0.0012786,"INCLINATION":97.3152,"RA_OF_ASC_NODE":298.5256,"ARG_OF_PERICENTER":309.3392,"MEAN_ANOMALY":50.6717,"EPHEMERIS_TYPE":0,"CLASSIFICATION_TYPE":"U","NORAD_CAT_ID":61781,"ELEMENT_SET_NO":999,"REV_AT_EPOCH":11870,"BSTAR":0.00032267684,"MEAN_MOTION_DOT":0.00010589,"MEAN_MOTION_DDOT":0}]
